{
  "norad_id": 52666,
  "name": "STARLINK-4079",
  "history": [
    {
      "epoch": "2026-03-28T21:47:45.373920Z",
      "apogee_km": 540.738758856699,
      "perigee_km": 538.7675752325013,
      "latitude_deg": -3.1153927545716996e-05,
      "longitude_deg": -85.80174442700579,
      "height_km": 540.4965318785552,
      "semi_major_axis_km": 6917.8901670446,
      "eccentricity": 0.00014247,
      "inclination_deg": 53.2172,
      "raan_deg": 67.4592,
      "arg_perigee_deg": 81.113,
      "mean_anomaly_deg": 279.0023,
      "mean_motion_rev_day": 15.08836801
    },
    {
      "epoch": "2026-03-29T04:09:18.018144Z",
      "apogee_km": 540.7386322787934,
      "perigee_km": 538.7684170573675,
      "latitude_deg": -1.7049808516857467e-05,
      "longitude_deg": 177.36159087573566,
      "height_km": 540.4932348170422,
      "semi_major_axis_km": 6917.89052466808,
      "eccentricity": 0.0001424,
      "inclination_deg": 53.2175,
      "raan_deg": 66.2697,
      "arg_perigee_deg": 80.8915,
      "mean_anomaly_deg": 279.2238,
      "mean_motion_rev_day": 15.08836684
    },
    {
      "epoch": "2026-03-30T02:24:41.455584Z",
      "apogee_km": 540.6850466441301,
      "perigee_km": 538.7978494035096,
      "latitude_deg": 5.9337779772139604e-05,
      "longitude_deg": -161.56295019561057,
      "height_km": 540.5941574363916,
      "semi_major_axis_km": 6917.87844802382,
      "eccentricity": 0.0001364,
      "inclination_deg": 53.2176,
      "raan_deg": 62.1068,
      "arg_perigee_deg": 87.3877,
      "mean_anomaly_deg": 272.7272,
      "mean_motion_rev_day": 15.08840635
    },
    {
      "epoch": "2026-03-30T05:35:27.665376Z",
      "apogee_km": 540.6788984378873,
      "perigee_km": 538.7972364195475,
      "latitude_deg": 1.74760272293187e-05,
      "longitude_deg": 150.0192004957859,
      "height_km": 540.5880484296009,
      "semi_major_axis_km": 6917.875067428718,
      "eccentricity": 0.000136,
      "inclination_deg": 53.2176,
      "raan_deg": 61.5121,
      "arg_perigee_deg": 87.2129,
      "mean_anomaly_deg": 272.9019,
      "mean_motion_rev_day": 15.08841741
    },
    {
      "epoch": "2026-03-31T14:58:34.083840Z",
      "apogee_km": 540.6646567053858,
      "perigee_km": 538.8424843291114,
      "latitude_deg": 8.503805072732304e-06,
      "longitude_deg": 1.6257739823797603,
      "height_km": 540.608804499474,
      "semi_major_axis_km": 6917.890570517248,
      "eccentricity": 0.0001317,
      "inclination_deg": 53.218,
      "raan_deg": 55.2665,
      "arg_perigee_deg": 87.4462,
      "mean_anomaly_deg": 272.6681,
      "mean_motion_rev_day": 15.08836669
    },
    {
      "epoch": "2026-04-01T14:49:21.129024Z",
      "apogee_km": 540.6844278200124,
      "perigee_km": 538.8179815823842,
      "latitude_deg": 2.7494275027190097e-05,
      "longitude_deg": -1.5103691169549915,
      "height_km": 540.6763021857751,
      "semi_major_axis_km": 6917.888204701198,
      "eccentricity": 0.0001349,
      "inclination_deg": 53.2184,
      "raan_deg": 50.8057,
      "arg_perigee_deg": 91.7976,
      "mean_anomaly_deg": 268.3171,
      "mean_motion_rev_day": 15.08837443
    },
    {
      "epoch": "2026-04-02T06:43:12.119232Z",
      "apogee_km": 540.6834615189737,
      "perigee_km": 538.7930829220859,
      "latitude_deg": -2.3941682830150793e-05,
      "longitude_deg": 116.39984709361121,
      "height_km": 540.7040669888659,
      "semi_major_axis_km": 6917.875272220529,
      "eccentricity": 0.00013663,
      "inclination_deg": 53.2182,
      "raan_deg": 47.8313,
      "arg_perigee_deg": 94.2474,
      "mean_anomaly_deg": 265.8674,
      "mean_motion_rev_day": 15.08841674
    },
    {
      "epoch": "2026-04-03T01:47:49.677792Z",
      "apogee_km": 540.6822054278573,
      "perigee_km": 538.792242189912,
      "latitude_deg": -2.2757779544153254e-06,
      "longitude_deg": -174.10869894193578,
      "height_km": 540.720296615222,
      "semi_major_axis_km": 6917.874223808884,
      "eccentricity": 0.0001366,
      "inclination_deg": 53.2182,
      "raan_deg": 44.2627,
      "arg_perigee_deg": 95.2996,
      "mean_anomaly_deg": 264.8152,
      "mean_motion_rev_day": 15.08842017
    },
    {
      "epoch": "2026-04-04T06:24:47.532384Z",
      "apogee_km": 540.6907523381487,
      "perigee_km": 538.8522489750139,
      "latitude_deg": -2.722931846150634e-05,
      "longitude_deg": 110.12330111729888,
      "height_km": 540.6983393131804,
      "semi_major_axis_km": 6917.908500656581,
      "eccentricity": 0.00013288,
      "inclination_deg": 53.2189,
      "raan_deg": 38.911,
      "arg_perigee_deg": 91.9281,
      "mean_anomaly_deg": 268.1863,
      "mean_motion_rev_day": 15.08830803
    }
  ]
}